NORAD_CAT_ID,OBJECT_NAME,OBJECT_TYPE,EPOCH,MEAN_MOTION,ECCENTRICITY,INCLINATION,RA_OF_ASC_NODE,ARG_OF_PERICENTER,MEAN_ANOMALY,BSTAR,MEAN_MOTION_DOT,MEAN_MOTION_DDOT,TLE_LINE0,TLE_LINE1,TLE_LINE2,SEMIMAJOR_AXIS,PERIOD,APOGEE,PERIGEE,DECAYED
56449.0,STARLINK-5993,PAYLOAD,2024-04-09 04:40:48,14.98341556,0.0002894,69.9981,108.3288,271.8486,88.2342,-0.00019784,-2.453e-05,0.0,0 STARLINK-5993,1 56449U 23064B   24100.19500541 -.00002453  00000-0 -19784-3 0  9993,2 56449  69.9981 108.3288 0002894 271.8486  88.2342 14.98341556 50829,6950.157,96.106,574.034,570.011,0.0
56449.0,STARLINK-5993,PAYLOAD,2024-04-09 11:05:21,14.98327799,0.000257,69.9991,107.656,257.2994,102.7878,-1.7301e-05,-2.99e-06,0.0,0 STARLINK-5993,1 56449U 23064B   24100.46204953 -.00000299  00000-0 -17301-4 0  9991,2 56449  69.9991 107.6560 0002570 257.2994 102.7878 14.98327799 50861,6950.2,96.107,573.851,570.278,0.0
56449.0,STARLINK-5993,PAYLOAD,2024-04-09 17:29:53,14.9832851,0.0002961,69.9987,106.9824,269.0916,90.9903,-1.5696e-05,-2.8e-06,0.0,0 STARLINK-5993,1 56449U 23064B   24100.72908893 -.00000280  00000-0 -15696-4 0  9999,2 56449  69.9987 106.9824 0002961 269.0916  90.9903 14.98328510 50544,6950.197,96.107,574.12,570.005,0.0
56449.0,STARLINK-5993,PAYLOAD,2024-04-10 11:07:22,14.98329762,0.0002932,69.9983,105.1303,265.5632,94.5192,-6.2287e-05,-8.36e-06,0.0,0 STARLINK-5993,1 56449U 23064B   24101.46344920 -.00000836  00000-0 -62287-4 0  9991,2 56449  69.9983 105.1303 0002932 265.5632  94.5192 14.98329762 51010,6950.194,96.107,574.096,570.021,0.0
56449.0,STARLINK-5993,PAYLOAD,2024-04-10 17:31:54,14.98332749,0.0003202,69.9983,104.4566,269.3498,90.7294,-5.6932e-05,-7.72e-06,0.0,0 STARLINK-5993,1 56449U 23064B   24101.73048710 -.00000772  00000-0 -56932-4 0  9998,2 56449  69.9983 104.4566 0003202 269.3498  90.7294 14.98332749 50699,6950.184,96.107,574.275,569.824,0.0
56449.0,STARLINK-5993,PAYLOAD,2024-04-11 11:09:22,14.98330685,0.0003109,69.9982,102.6051,269.5708,90.5095,4.1475e-05,4.02e-06,0.0,0 STARLINK-5993,1 56449U 23064B   24102.46484631  .00000402  00000-0  41475-4 0  9999,2 56449  69.9982 102.6051 0003109 269.5708  90.5095 14.98330685 51166,6950.191,96.107,574.217,569.895,0.0
56449.0,STARLINK-5993,PAYLOAD,2024-04-11 17:33:55,14.98330097,0.0003144,69.9981,101.9316,270.0344,90.0455,3.6353e-05,3.41e-06,0.0,0 STARLINK-5993,1 56449U 23064B   24102.73188662  .00000341  00000-0  36353-4 0  9995,2 56449  69.9981 101.9316 0003144 270.0344  90.0455 14.98330097 50849,6950.193,96.107,574.243,569.872,0.0
56449.0,STARLINK-5993,PAYLOAD,2024-04-12 09:35:15,14.98330426,0.0003155,69.9981,100.2481,269.6969,90.3828,5.1336e-05,5.2e-06,0.0,0 STARLINK-5993,1 56449U 23064B   24103.39948597  .00000520  00000-0  51336-4 0  9996,2 56449  69.9981 100.2481 0003155 269.6969  90.3828 14.98330426 50947,6950.192,96.107,574.249,569.864,0.0
56449.0,STARLINK-5993,PAYLOAD,2024-04-13 04:48:52,14.98332954,0.0003135,69.9981,98.228,269.6584,90.4216,3.1715e-05,2.85e-06,0.0,0 STARLINK-5993,1 56449U 23064B   24104.20060412  .00000285  00000-0  31715-4 0  9995,2 56449  69.9981  98.2280 0003135 269.6584  90.4216 14.98332954 51425,6950.184,96.107,574.228,569.87,0.0
56449.0,STARLINK-5993,PAYLOAD,2024-04-13 09:37:16,14.9833564,0.0003149,69.9982,97.7232,270.3245,89.7553,4.7074e-05,4.69e-06,0.0,0 STARLINK-5993,1 56449U 23064B   24104.40088148  .00000469  00000-0  47074-4 0  9992,2 56449  69.9982  97.7232 0003149 270.3245  89.7553 14.98335640 51098,6950.175,96.107,574.229,569.852,0.0
56449.0,STARLINK-5993,PAYLOAD,2024-04-14 04:50:53,14.98331101,0.0003071,69.9985,95.7035,271.4277,88.6531,3.7643e-06,-4.8e-07,0.0,0 STARLINK-5993,1 56449U 23064B   24105.20200455 -.00000048  00000-0  37643-5 0  9994,2 56449  69.9985  95.7035 0003071 271.4277  88.6531 14.98331101 51576,6950.189,96.107,574.189,569.92,0.0
56449.0,STARLINK-5993,PAYLOAD,2024-04-14 09:39:17,14.98331971,0.0002951,69.9988,95.1995,265.091,94.9912,2.6641e-05,2.25e-06,0.0,0 STARLINK-5993,1 56449U 23064B   24105.40228281  .00000225  00000-0  26641-4 0  9994,2 56449  69.9988  95.1995 0002951 265.0910  94.9912 14.98331971 51249,6950.187,96.107,574.103,570.001,0.0
56449.0,STARLINK-5993,PAYLOAD,2024-04-15 04:52:53,14.98347772,0.0002899,69.9989,93.1795,266.8194,93.2633,-0.00026169,-3.215e-05,0.0,0 STARLINK-5993,1 56449U 23064B   24106.20340009 -.00003215  00000-0 -26169-3 0  9994,2 56449  69.9989  93.1795 0002899 266.8194  93.2633 14.98347772 51721,6950.138,96.106,574.018,569.988,0.0
56449.0,STARLINK-5993,PAYLOAD,2024-04-15 09:41:18,14.98331353,0.0002775,69.9994,92.675,260.747,99.3375,9.2597e-06,1.8e-07,0.0,0 STARLINK-5993,1 56449U 23064B   24106.40368299  .00000018  00000-0  92597-5 0  9993,2 56449  69.9994  92.6750 0002775 260.7470  99.3375 14.98331353 51756,6950.189,96.107,573.982,570.125,0.0
56449.0,STARLINK-5993,PAYLOAD,2024-04-16 09:43:18,14.98332851,0.00029,69.9991,90.1489,265.7432,94.3396,6.0707e-05,6.31e-06,0.0,0 STARLINK-5993,1 56449U 23064B   24107.40508051  .00000631  00000-0  60707-4 0  9994,2 56449  69.9991  90.1489 0002900 265.7432  94.3396 14.98332851 51907,6950.184,96.107,574.065,570.034,0.0
56449.0,STARLINK-5993,PAYLOAD,2024-04-16 16:07:51,14.98332699,0.0002968,69.9989,89.4757,269.5728,90.509,4.3936e-05,4.31e-06,0.0,0 STARLINK-5993,1 56449U 23064B   24107.67212088  .00000431  00000-0  43936-4 0  9998,2 56449  69.9989  89.4757 0002968 269.5728  90.5090 14.98332699 51580,6950.185,96.107,574.112,569.987,0.0
56449.0,STARLINK-5993,PAYLOAD,2024-04-17 08:09:11,14.98338012,0.000297,69.9988,87.7923,269.5002,90.5817,0.0001059,1.171e-05,0.0,0 STARLINK-5993,1 56449U 23064B   24108.33971511  .00001171  00000-0  10590-3 0  9996,2 56449  69.9988  87.7923 0002970 269.5002  90.5817 14.98338012 51686,6950.168,96.106,574.097,569.969,0.0
56449.0,STARLINK-5993,PAYLOAD,2024-04-18 03:22:49,14.98322246,0.0002923,69.9994,85.773,267.0294,93.0531,-3.1418e-05,-4.68e-06,0.0,0 STARLINK-5993,1 56449U 23064B   24109.14084962 -.00000468  00000-0 -31418-4 0  9994,2 56449  69.9994  85.7730 0002923 267.0294  93.0531 14.98322246 52168,6950.217,96.107,574.113,570.05,0.0
56449.0,STARLINK-5993,PAYLOAD,2024-04-18 08:11:13,14.98320027,0.0002918,69.9992,85.2673,269.9715,90.111,-3.3809e-05,-4.96e-06,0.0,0 STARLINK-5993,1 56449U 23064B   24109.34113230 -.00000496  00000-0 -33809-4 0  9994,2 56449  69.9992  85.2673 0002918 269.9715  90.1110 14.98320027 51839,6950.224,96.108,574.117,570.061,0.0
56449.0,STARLINK-5993,PAYLOAD,2024-04-18 22:36:25,14.98330562,0.0003127,69.9985,83.7523,271.9297,88.1503,1.5589e-05,9.3e-07,0.0,0 STARLINK-5993,1 56449U 23064B   24109.94196498  .00000093  00000-0  15589-4 0  9993,2 56449  69.9985  83.7523 0003127 271.9297  88.1503 14.98330562 51927,6950.191,96.107,574.229,569.883,0.0
56449.0,STARLINK-5993,PAYLOAD,2024-04-19 05:00:57,14.98332777,0.0003018,69.9991,83.0775,273.5271,86.5542,5.2206e-05,5.3e-06,0.0,0 STARLINK-5993,1 56449U 23064B   24110.20900323  .00000530  00000-0  52206-4 0  9997,2 56449  69.9991  83.0775 0003018 273.5271  86.5542 14.98332777 52325,6950.184,96.107,574.147,569.952,0.0
56449.0,STARLINK-5993,PAYLOAD,2024-04-19 08:13:13,14.98341375,0.0002994,69.999,82.7427,267.0536,93.028,9.6875e-05,1.063e-05,0.0,0 STARLINK-5993,1 56449U 23064B   24110.34251555  .00001063  00000-0  96875-4 0  9990,2 56449  69.9990  82.7427 0002994 267.0536  93.0280 14.98341375 52346,6950.158,96.106,574.104,569.942,0.0
56449.0,STARLINK-5993,PAYLOAD,2024-04-19 22:38:26,14.98329384,0.0002405,70.0007,81.228,264.5391,95.5494,0.00022216,2.559e-05,0.0,0 STARLINK-5993,1 56449U 23064B   24110.94335936  .00002559  00000-0  22216-3 0  9990,2 56449  70.0007  81.2280 0002405 264.5391  95.5494 14.98329384 52077,6950.195,96.107,573.731,570.388,0.0
56449.0,STARLINK-5993,PAYLOAD,2024-04-20 08:15:14,14.98336865,0.0002292,70.0008,80.2184,256.2531,103.8373,0.00030778,3.582e-05,0.0,0 STARLINK-5993,1 56449U 23064B   24111.34391247  .00003582  00000-0  30778-3 0  9991,2 56449  70.0008  80.2184 0002292 256.2531 103.8373 14.98336865 52495,6950.172,96.107,573.63,570.444,0.0
56449.0,STARLINK-5993,PAYLOAD,2024-04-20 21:04:20,14.98320992,0.000125,70.0054,78.8793,206.5595,153.55,6.8256e-07,-8.5e-07,0.0,0 STARLINK-5993,1 56449U 23064B   24111.87801492 -.00000085  00000-0  68256-6 0  9998,2 56449  70.0054  78.8793 0001250 206.5595 153.5500 14.98320992 52573,6950.221,96.108,572.955,571.217,0.0
56449.0,STARLINK-5993,PAYLOAD,2024-04-21 05:05:02,14.98300097,0.0002244,70.001,78.0306,256.1682,103.9228,-0.0003101,-3.788e-05,0.0,0 STARLINK-5993,1 56449U 23064B   24112.21183755 -.00003788  00000-0 -31010-3 0  9991,2 56449  70.0010  78.0306 0002244 256.1682 103.9228 14.98300097 52625,6950.285,96.109,573.71,570.591,0.0
56449.0,STARLINK-5993,PAYLOAD,2024-04-21 08:17:18,14.98302917,0.0002304,70.001,77.694,256.5108,103.5794,-0.00026606,-3.264e-05,0.0,0 STARLINK-5993,1 56449U 23064B   24112.34535690 -.00003264  00000-0 -26606-3 0  9998,2 56449  70.0010  77.6940 0002304 256.5108 103.5794 14.98302917 52287,6950.277,96.109,573.743,570.54,0.0
56449.0,STARLINK-5993,PAYLOAD,2024-04-21 22:42:29,14.98336287,0.0002552,70.0006,76.1788,260.3861,99.701,3.3597e-05,3.08e-06,0.0,0 STARLINK-5993,1 56449U 23064B   24112.94617031  .00000308  00000-0  33597-4 0  9996,2 56449  70.0006  76.1788 0002552 260.3861  99.7010 14.98336287 52374,6950.173,96.107,573.812,570.265,0.0
56449.0,STARLINK-5993,PAYLOAD,2024-04-22 05:07:00,14.98344281,0.0002174,70.0019,75.5067,233.2292,126.8668,0.00016269,1.849e-05,0.0,0 STARLINK-5993,1 56449U 23064B   24113.21320292  .00001849  00000-0  16269-3 0  9994,2 56449  70.0019  75.5067 0002174 233.2292 126.8668 14.98344281 52776,6950.149,96.106,573.525,570.503,0.0
56449.0,STARLINK-5993,PAYLOAD,2024-04-22 08:19:16,14.98345315,0.0002148,70.0023,75.1705,228.6847,131.4127,0.00019814,2.273e-05,0.0,0 STARLINK-5993,1 56449U 23064B   24113.34672099  .00002273  00000-0  19814-3 0  9994,2 56449  70.0023  75.1705 0002148 228.6847 131.4127 14.98345315 52435,6950.146,96.106,573.503,570.518,0.0
